$$SOE
2459580.500000000, A.D. 2022-Jan-01 00:00:00.0000, -5.570359675890697E+09, 2.457272478054053E+09, 1.297221079645288E+07,
2459587.500000000, A.D. 2022-Jan-08 00:00:00.0000, -5.571300479196431E+09, 2.454494991826279E+09, 1.292158456734502E+07,
2459594.500000000, A.D. 2022-Jan-15 00:00:00.0000, -5.572240163007717E+09, 2.451716992685329E+09, 1.287095709455800E+07,
2459601.500000000, A.D. 2022-Jan-22 00:00:00.0000, -5.573178723051889E+09, 2.448938479666616E+09, 1.282032801247454E+07,
2459608.500000000, A.D. 2022-Jan-29 00:00:00.0000, -5.574116154477480E+09, 2.446159454282215E+09, 1.276969706261051E+07,
2459615.500000000, A.D. 2022-Feb-05 00:00:00.0000, -5.575052454061296E+09, 2.443379919849188E+09, 1.271906424138153E+07,
2459622.500000000, A.D. 2022-Feb-12 00:00:00.0000, -5.575987620242184E+09, 2.440599879749676E+09, 1.266842966282129E+07,
2459629.500000000, A.D. 2022-Feb-19 00:00:00.0000, -5.576921652306231E+09, 2.437819336991730E+09, 1.261779345125616E+07,
2459636.500000000, A.D. 2022-Feb-26 00:00:00.0000, -5.577854550034804E+09, 2.435038294347908E+09, 1.256715572494984E+07,
2459643.500000000, A.D. 2022-Mar-05 00:00:00.0000, -5.578786313656142E+09, 2.432256754454758E+09, 1.251651660544586E+07,
2459650.500000000, A.D. 2022-Mar-12 00:00:00.0000, -5.579716943878658E+09, 2.429474719807544E+09, 1.246587622660494E+07,
2459657.500000000, A.D. 2022-Mar-19 00:00:00.0000, -5.580646441934942E+09, 2.426692192678412E+09, 1.241523473880720E+07,
2459664.500000000, A.D. 2022-Mar-26 00:00:00.0000, -5.581574809614015E+09, 2.423909174952237E+09, 1.236459230548930E+07,
2459671.500000000, A.D. 2022-Apr-02 00:00:00.0000, -5.582502049214049E+09, 2.421125667824533E+09, 1.231394908097076E+07,
2459678.500000000, A.D. 2022-Apr-09 00:00:00.0000, -5.583428163143511E+09, 2.418341671366486E+09, 1.226330514478576E+07,
2459685.500000000, A.D. 2022-Apr-16 00:00:00.0000, -5.584353152813575E+09, 2.415557184611403E+09, 1.221266041302860E+07,
2459692.500000000, A.D. 2022-Apr-23 00:00:00.0000, -5.585277018090699E+09, 2.412772207247045E+09, 1.216201473157656E+07,
2459699.500000000, A.D. 2022-Apr-30 00:00:00.0000, -5.586199759179498E+09, 2.409986740668711E+09, 1.211136813915193E+07,
2459706.500000000, A.D. 2022-May-07 00:00:00.0000, -5.587121377873188E+09, 2.407200786419662E+09, 1.206072085795677E+07,
2459713.500000000, A.D. 2022-May-14 00:00:00.0000, -5.588041876782233E+09, 2.404414345057137E+09, 1.201007313267922E+07,
2459720.500000000, A.D. 2022-May-21 00:00:00.0000, -5.588961258572264E+09, 2.401627416202766E+09, 1.195942516617393E+07,
2459727.500000000, A.D. 2022-May-28 00:00:00.0000, -5.589879525690042E+09, 2.398839998818697E+09, 1.190877711739051E+07,
2459734.500000000, A.D. 2022-Jun-04 00:00:00.0000, -5.590796680300404E+09, 2.396052091396681E+09, 1.185812911059844E+07,
2459741.500000000, A.D. 2022-Jun-11 00:00:00.0000, -5.591712724289408E+09, 2.393263692062477E+09, 1.180748124285579E+07,
2459748.500000000, A.D. 2022-Jun-18 00:00:00.0000, -5.592627659295030E+09, 2.390474798609037E+09, 1.175683358731759E+07,
2459755.500000000, A.D. 2022-Jun-25 00:00:00.0000, -5.593541486735872E+09, 2.387685408425546E+09, 1.170618618705642E+07,
2459762.500000000, A.D. 2022-Jul-02 00:00:00.0000, -5.594454207703848E+09, 2.384895518256816E+09, 1.165553902182615E+07,
2459769.500000000, A.D. 2022-Jul-09 00:00:00.0000, -5.595365822330512E+09, 2.382105123970248E+09, 1.160489192656422E+07,
2459776.500000000, A.D. 2022-Jul-16 00:00:00.0000, -5.596276328682198E+09, 2.379314221413322E+09, 1.155424455533469E+07,
2459783.500000000, A.D. 2022-Jul-23 00:00:00.0000, -5.597185723382344E+09, 2.376522808439434E+09, 1.150359659889174E+07,
2459790.500000000, A.D. 2022-Jul-30 00:00:00.0000, -5.598094003876919E+09, 2.373730884748199E+09, 1.145294797428691E+07,
2459797.500000000, A.D. 2022-Aug-06 00:00:00.0000, -5.599001168744181E+09, 2.370938450188361E+09, 1.140229870960855E+07,
2459804.500000000, A.D. 2022-Aug-13 00:00:00.0000, -5.599907216871964E+09, 2.368145504277758E+09, 1.135164882470608E+07,
2459811.500000000, A.D. 2022-Aug-20 00:00:00.0000, -5.600812147071826E+09, 2.365352046436971E+09, 1.130099831094909E+07,
2459818.500000000, A.D. 2022-Aug-27 00:00:00.0000, -5.601715958061945E+09, 2.362558076210047E+09, 1.125034714463449E+07,
2459825.500000000, A.D. 2022-Sep-03 00:00:00.0000, -5.602618648570801E+09, 2.359763593361799E+09, 1.119969530243814E+07,
2459832.500000000, A.D. 2022-Sep-10 00:00:00.0000, -5.603520217471582E+09, 2.356968597875559E+09, 1.114904277273905E+07,
2459839.500000000, A.D. 2022-Sep-17 00:00:00.0000, -5.604420663917871E+09, 2.354173089849674E+09, 1.109838956002271E+07,
2459846.500000000, A.D. 2022-Sep-24 00:00:00.0000, -5.605319987420201E+09, 2.351377069241857E+09, 1.104773567263627E+07,
2459853.500000000, A.D. 2022-Oct-01 00:00:00.0000, -5.606218187623486E+09, 2.348580535439095E+09, 1.099708106994724E+07,
2459860.500000000, A.D. 2022-Oct-08 00:00:00.0000, -5.607115263378020E+09, 2.345783487175190E+09, 1.094642557403600E+07,
2459867.500000000, A.D. 2022-Oct-15 00:00:00.0000, -5.608011212035909E+09, 2.342985923995116E+09, 1.089576892914486E+07,
2459874.500000000, A.D. 2022-Oct-22 00:00:00.0000, -5.608906031154474E+09, 2.340187847582310E+09, 1.084511107111919E+07,
2459881.500000000, A.D. 2022-Oct-29 00:00:00.0000, -5.609799720108870E+09, 2.337389260355387E+09, 1.079445216550505E+07,
2459888.500000000, A.D. 2022-Nov-05 00:00:00.0000, -5.610692279514540E+09, 2.334590164075457E+09, 1.074379244547021E+07,
2459895.500000000, A.D. 2022-Nov-12 00:00:00.0000, -5.611583710424391E+09, 2.331790559731235E+09, 1.069313213309860E+07,
2459902.500000000, A.D. 2022-Nov-19 00:00:00.0000, -5.612474014020021E+09, 2.328990447747858E+09, 1.064247143187106E+07,
2459909.500000000, A.D. 2022-Nov-26 00:00:00.0000, -5.613363191534807E+09, 2.326189828122062E+09, 1.059181053366375E+07,
2459916.500000000, A.D. 2022-Dec-03 00:00:00.0000, -5.614251244242796E+09, 2.323388700472194E+09, 1.054114962399769E+07,
2459923.500000000, A.D. 2022-Dec-10 00:00:00.0000, -5.615138173467913E+09, 2.320587064021754E+09, 1.049048888283670E+07,
2459930.500000000, A.D. 2022-Dec-17 00:00:00.0000, -5.616023980588714E+09, 2.317784917491476E+09, 1.043982847661507E+07,
2459937.500000000, A.D. 2022-Dec-24 00:00:00.0000, -5.616908666929352E+09, 2.314982258834101E+09, 1.038916852610219E+07,
2459944.500000000, A.D. 2022-Dec-31 00:00:00.0000, -5.617792233179070E+09, 2.312179084919372E+09, 1.033850902612460E+07,
2459951.500000000, A.D. 2023-Jan-07 00:00:00.0000, -5.618674678217540E+09, 2.309375392131628E+09, 1.028784978459573E+07,
2459958.500000000, A.D. 2023-Jan-14 00:00:00.0000, -5.619555999313062E+09, 2.306571178376805E+09, 1.023719060194182E+07,
2459965.500000000, A.D. 2023-Jan-21 00:00:00.0000, -5.620436194338345E+09, 2.303766443326235E+09, 1.018653149086297E+07,
2459972.500000000, A.D. 2023-Jan-28 00:00:00.0000, -5.621315262335906E+09, 2.300961186701705E+09, 1.013587258408999E+07,
2459979.500000000, A.D. 2023-Feb-04 00:00:00.0000, -5.622193202641614E+09, 2.298155407629560E+09, 1.008521399676728E+07,
2459986.500000000, A.D. 2023-Feb-11 00:00:00.0000, -5.623070014361588E+09, 2.295349104870298E+09, 1.003455579241335E+07,
2459993.500000000, A.D. 2023-Feb-18 00:00:00.0000, -5.623945696265657E+09, 2.292542277100623E+09, 9.983897991103411E+06,
2460000.500000000, A.D. 2023-Feb-25 00:00:00.0000, -5.624820246834454E+09, 2.289734923086325E+09, 9.933240582684040E+06,
2460007.500000000, A.D. 2023-Mar-04 00:00:00.0000, -5.625693664357789E+09, 2.286927041765056E+09, 9.882583537344813E+06,
2460014.500000000, A.D. 2023-Mar-11 00:00:00.0000, -5.626565947055520E+09, 2.284118632239698E+09, 9.831926811147094E+06,
2460021.500000000, A.D. 2023-Mar-18 00:00:00.0000, -5.627437093173630E+09, 2.281309693633143E+09, 9.781270338356137E+06,
2460028.500000000, A.D. 2023-Mar-25 00:00:00.0000, -5.628307100852015E+09, 2.278500224757467E+09, 9.730613988288760E+06,
2460035.500000000, A.D. 2023-Apr-01 00:00:00.0000, -5.629175967339279E+09, 2.275690223991174E+09, 9.679957480108976E+06,
2460042.500000000, A.D. 2023-Apr-08 00:00:00.0000, -5.630043688169767E+09, 2.272879690589651E+09, 9.629300412324667E+06,
2460049.500000000, A.D. 2023-Apr-15 00:00:00.0000, -5.630910258639725E+09, 2.270068626322854E+09, 9.578642531120300E+06,
2460056.500000000, A.D. 2023-Apr-22 00:00:00.0000, -5.631775675773308E+09, 2.267257034388375E+09, 9.527983822291255E+06,
2460063.500000000, A.D. 2023-Apr-29 00:00:00.0000, -5.632639938043343E+09, 2.264444917852869E+09, 9.477324360052228E+06,
2460070.500000000, A.D. 2023-May-06 00:00:00.0000, -5.633503044607002E+09, 2.261632279403048E+09, 9.426664219709873E+06,
2460077.500000000, A.D. 2023-May-13 00:00:00.0000, -5.634364995033152E+09, 2.258819121512833E+09, 9.376003470664144E+06,
2460084.500000000, A.D. 2023-May-20 00:00:00.0000, -5.635225789287198E+09, 2.256005446535655E+09, 9.325342187955260E+06,
2460091.500000000, A.D. 2023-May-27 00:00:00.0000, -5.636085427779920E+09, 2.253191256692542E+09, 9.274680461971164E+06,
2460098.500000000, A.D. 2023-Jun-03 00:00:00.0000, -5.636943911422681E+09, 2.250376553982076E+09, 9.224018402887464E+06,
2460105.500000000, A.D. 2023-Jun-10 00:00:00.0000, -5.637801241665269E+09, 2.247561339998485E+09, 9.173356136252880E+06,
2460112.500000000, A.D. 2023-Jun-17 00:00:00.0000, -5.638657420427272E+09, 2.244745615597856E+09, 9.122693776361227E+06,
2460119.500000000, A.D. 2023-Jun-24 00:00:00.0000, -5.639512449603060E+09, 2.241929380468130E+09, 9.072031352359295E+06,
2460126.500000000, A.D. 2023-Jul-01 00:00:00.0000, -5.640366329887167E+09, 2.239112633431022E+09, 9.021368731322765E+06,
2460133.500000000, A.D. 2023-Jul-08 00:00:00.0000, -5.641219060594126E+09, 2.236295374297996E+09, 8.970705758852959E+06,
2460140.500000000, A.D. 2023-Jul-15 00:00:00.0000, -5.642070641749448E+09, 2.233477604450547E+09, 8.920042502931237E+06,
2460147.500000000, A.D. 2023-Jul-22 00:00:00.0000, -5.642921074930412E+09, 2.230659325110427E+09, 8.869379193405509E+06,
$$EOE